FENGYUN 3D              
1 43010U 17072A   26165.18741749  .00000474  00000+0  24572-3 0  9993
2 43010  99.0117 139.5552 0002596  66.5982 293.5466 14.19740500444564
NOAA 20 (JPSS-1)        
1 43013U 17073A   26165.11139211  .00000026  00000+0  33168-4 0  9990
2 43013  98.7773 104.6013 0000289  72.0377 288.0831 14.19511186444036
GOES 17                 
1 43226U 18022A   26165.17194236 -.00000174  00000+0  00000+0 0  9994
2 43226   0.9295  85.7633 0000409  32.5899 116.5253  1.00270168 30398
SENTINEL-3B             
1 43437U 18039A   26165.17411822  .00000102  00000+0  60315-4 0  9999
2 43437  98.6249 232.7495 0000754  83.4735 276.6531 14.26734006423696
FENGYUN 2H              
1 43491U 18050A   26165.06282791 -.00000123  00000+0  00000+0 0  9995
2 43491   3.0218  79.1129 0001956 135.1361 150.1623  1.00269897 29402
METOP-C                 
1 43689U 18087A   26165.18216293  .00000098  00000+0  64437-4 0  9990
2 43689  98.6645 224.8406 0001657 132.9652 227.1664 14.21511359394403
GEO-KOMPSAT-2A          
1 43823U 18100A   26164.97892156 -.00000334  00000+0  00000+0 0  9995
2 43823   0.0500 133.4025 0001788 311.7501 297.8116  1.00272092 27597
METEOR-M2 2             
1 44387U 19038A   26165.22408669  .00000446  00000+0  21280-3 0  9993
2 44387  98.9137 152.4654 0002162  52.4007 307.7367 14.24366550360874
ARKTIKA-M 1             
1 47719U 21016A   26160.51571443 -.00000149  00000+0  00000+0 0  9996
2 47719  63.2417  58.7595 7285674 269.8905  14.6803  2.00625436 38630
FENGYUN 3E              
1 49008U 21062A   26165.17161816 -.00000151  00000+0 -50456-4 0  9995
2 49008  98.7489 168.6130 0002836  90.5130 269.6371 14.19903655256156
GOES 18                 
1 51850U 22021A   26165.15600350  .00000105  00000+0  00000+0 0  9990
2 51850   0.0208 162.0083 0000466   5.3663  14.2477  1.00272156  6566
NOAA 21 (JPSS-2)        
1 54234U 22150A   26165.14440583  .00000039  00000+0  39307-4 0  9994
2 54234  98.7061 103.9847 0001482 160.5922 199.5311 14.19564941186113
METEOSAT-12 (MTG-I1)    
1 54743U 22170C   26165.18961998  .00000000  00000+0  00000+0 0  9994
2 54743   0.7347  22.4374 0003143  72.1271 235.7711  1.00271990 12940
TIANMU-1 03             
1 55973U 23039A   26165.20455738  .00014955  00000+0  29572-3 0  9991
2 55973  97.5222 339.0574 0004256 106.5000 253.6718 15.47208482180370
TIANMU-1 04             
1 55974U 23039B   26165.19518329  .00015336  00000+0  29699-3 0  9990
2 55974  97.5161 338.2011 0004832 103.7341 256.4447 15.47804912180388
TIANMU-1 05             
1 55975U 23039C   26165.18517993  .00014889  00000+0  29518-3 0  9998
2 55975  97.5206 338.6531 0003886 121.9010 238.2617 15.47135586180351
TIANMU-1 06             
1 55976U 23039D   26165.19837729  .00015071  00000+0  29288-3 0  9990
2 55976  97.5213 339.2996 0004276 118.2643 241.9039 15.47709765180385
FENGYUN 3G              
1 56232U 23055A   26165.14590344  .00025434  00000+0  41272-3 0  9999
2 56232  49.9936   1.6916 0006926 283.8554  76.1642 15.52506095179530
METEOR-M2 3             
1 57166U 23091A   26165.21771707  .00000019  00000+0  26898-4 0  9998
2 57166  98.6090 220.2567 0004196 163.0112 197.1208 14.24046585154093
TIANMU-1 07             
1 57399U 23101A   26165.15665465  .00006779  00000+0  23757-3 0  9993
2 57399  97.2596 215.8944 0003954 127.6823 232.4777 15.29776856161181
TIANMU-1 08             
1 57400U 23101B   26165.18871604  .00006066  00000+0  21280-3 0  9991
2 57400  97.2585 215.6968 0005459 122.2775 237.8995 15.29781229161186
TIANMU-1 09             
1 57401U 23101C   26165.17219014  .00006428  00000+0  22516-3 0  9997
2 57401  97.2543 215.0980 0004394 133.6276 226.5330 15.29811603161186
TIANMU-1 10             
1 57402U 23101D   26165.20518586  .00006533  00000+0  22894-3 0  9994
2 57402  97.2622 216.1777 0005989 133.9486 226.2249 15.29783109161183
FENGYUN 3F              
1 57490U 23111A   26165.15560652  .00000053  00000+0  45407-4 0  9994
2 57490  98.6835 235.2207 0001587  95.3031 264.8326 14.19938630148434
ARKTIKA-M 2             
1 58584U 23198A   26160.78386103  .00000212  00000+0  00000+0 0  9997
2 58584  63.2205 155.1874 6900401 267.4353  18.7899  2.00606537 18179
TIANMU-1 11             
1 58645U 23205A   26165.23568060  .00005330  00000+0  20385-3 0  9991
2 58645  97.3443 186.8387 0009324  26.9964 333.1758 15.26968473137074
TIANMU-1 12             
1 58646U 23205B   26165.14044275  .00006288  00000+0  24038-3 0  9991
2 58646  97.3431 186.5013 0007104  14.5173 345.6268 15.26932084137044
TIANMU-1 13             
1 58647U 23205C   26165.23787109  .00005419  00000+0  20851-3 0  9996
2 58647  97.3460 186.8693 0006256 353.1009   7.0142 15.26786058137050
TIANMU-1 14             
1 58648U 23205D   26165.15762652  .00006154  00000+0  23600-3 0  9996
2 58648  97.3396 185.9745 0007227 357.1694   2.9503 15.26830831137043
TIANMU-1 19             
1 58660U 23208A   26165.21621368  .00007968  00000+0  26419-3 0  9993
2 58660  97.4504 281.5005 0004043 341.7124  18.3971 15.31533975136876
TIANMU-1 20             
1 58661U 23208B   26165.19103123  .00007980  00000+0  25487-3 0  9993
2 58661  97.4445 282.1074 0006265 346.0055  14.1012 15.32724814136968
