OBJECT_NAME,OBJECT_ID,EPOCH,MEAN_MOTION,ECCENTRICITY,INCLINATION,RA_OF_ASC_NODE,ARG_OF_PERICENTER,MEAN_ANOMALY,EPHEMERIS_TYPE,CLASSIFICATION_TYPE,NORAD_CAT_ID,ELEMENT_SET_NO,REV_AT_EPOCH,BSTAR,MEAN_MOTION_DOT,MEAN_MOTION_DDOT
FENGYUN 3D,2017-072A,2026-06-14T04:29:52.871136,14.19740500,.0002596,99.0117,139.5552,66.5982,293.5466,0,U,43010,999,44456,.24572E-3,.474E-5,0
NOAA 20 (JPSS-1),2017-073A,2026-06-14T02:40:24.278304,14.19511186,.0000289,98.7773,104.6013,72.0377,288.0831,0,U,43013,999,44403,.33168E-4,.26E-6,0
GOES 17,2018-022A,2026-06-14T04:07:35.819904,1.00270168,.0000409,0.9295,85.7633,32.5899,116.5253,0,U,43226,999,3039,0,-.174E-5,0
SENTINEL-3B,2018-039A,2026-06-14T04:10:43.814208,14.26734006,.0000754,98.6249,232.7495,83.4735,276.6531,0,U,43437,999,42369,.60315E-4,.102E-5,0
FENGYUN 2H,2018-050A,2026-06-14T01:30:28.331424,1.00269897,.0001956,3.0218,79.1129,135.1361,150.1623,0,U,43491,999,2940,0,-.123E-5,0
METOP-C,2018-087A,2026-06-14T04:22:18.877152,14.21511359,.0001657,98.6645,224.8406,132.9652,227.1664,0,U,43689,999,39440,.64437E-4,.98E-6,0
GEO-KOMPSAT-2A,2018-100A,2026-06-13T23:29:38.822784,1.00272092,.0001788,0.0500,133.4025,311.7501,297.8116,0,U,43823,999,2759,0,-.334E-5,0
METEOR-M2 2,2019-038A,2026-06-14T05:22:41.090016,14.24366550,.0002162,98.9137,152.4654,52.4007,307.7367,0,U,44387,999,36087,.2128E-3,.446E-5,0
ARKTIKA-M 1,2021-016A,2026-06-09T12:22:37.726752,2.00625436,.7285674,63.2417,58.7595,269.8905,14.6803,0,U,47719,999,3863,0,-.149E-5,0
FENGYUN 3E,2021-062A,2026-06-14T04:07:07.809024,14.19903655,.0002836,98.7489,168.6130,90.5130,269.6371,0,U,49008,999,25615,-.50456E-4,-.151E-5,0
GOES 18,2022-021A,2026-06-14T03:44:38.702400,1.00272156,.0000466,0.0208,162.0083,5.3663,14.2477,0,U,51850,999,656,0,.105E-5,0
NOAA 21 (JPSS-2),2022-150A,2026-06-14T03:27:56.663712,14.19564941,.0001482,98.7061,103.9847,160.5922,199.5311,0,U,54234,999,18611,.39307E-4,.39E-6,0
METEOSAT-12 (MTG-I1),2022-170C,2026-06-14T04:33:03.166272,1.00271990,.0003143,0.7347,22.4374,72.1271,235.7711,0,U,54743,999,1294,0,0,0
TIANMU-1 03,2023-039A,2026-06-14T04:54:33.757632,15.47208482,.0004256,97.5222,339.0574,106.5000,253.6718,0,U,55973,999,18037,.29572E-3,.14955E-3,0
TIANMU-1 04,2023-039B,2026-06-14T04:41:03.836256,15.47804912,.0004832,97.5161,338.2011,103.7341,256.4447,0,U,55974,999,18038,.29699E-3,.15336E-3,0
TIANMU-1 05,2023-039C,2026-06-14T04:26:39.545952,15.47135586,.0003886,97.5206,338.6531,121.9010,238.2617,0,U,55975,999,18035,.29518E-3,.14889E-3,0
TIANMU-1 06,2023-039D,2026-06-14T04:45:39.797856,15.47709765,.0004276,97.5213,339.2996,118.2643,241.9039,0,U,55976,999,18038,.29288E-3,.15071E-3,0
FENGYUN 3G,2023-055A,2026-06-14T03:30:06.057216,15.52506095,.0006926,49.9936,1.6916,283.8554,76.1642,0,U,56232,999,17953,.41272E-3,.25434E-3,0
METEOR-M2 3,2023-091A,2026-06-14T05:13:30.754848,14.24046585,.0004196,98.6090,220.2567,163.0112,197.1208,0,U,57166,999,15409,.26898E-4,.19E-6,0
TIANMU-1 07,2023-101A,2026-06-14T03:45:34.961760,15.29776856,.0003954,97.2596,215.8944,127.6823,232.4777,0,U,57399,999,16118,.23757E-3,.6779E-4,0
TIANMU-1 08,2023-101B,2026-06-14T04:31:45.065856,15.29781229,.0005459,97.2585,215.6968,122.2775,237.8995,0,U,57400,999,16118,.2128E-3,.6066E-4,0
TIANMU-1 09,2023-101C,2026-06-14T04:07:57.228096,15.29811603,.0004394,97.2543,215.0980,133.6276,226.5330,0,U,57401,999,16118,.22516E-3,.6428E-4,0
TIANMU-1 10,2023-101D,2026-06-14T04:55:28.058304,15.29783109,.0005989,97.2622,216.1777,133.9486,226.2249,0,U,57402,999,16118,.22894E-3,.6533E-4,0
FENGYUN 3F,2023-111A,2026-06-14T03:44:04.403328,14.19938630,.0001587,98.6835,235.2207,95.3031,264.8326,0,U,57490,999,14843,.45407E-4,.53E-6,0
ARKTIKA-M 2,2023-198A,2026-06-09T18:48:45.592992,2.00606537,.69004015,63.2205,155.1874,267.4353,18.7899,0,U,58584,999,1817,0,.212E-5,0
TIANMU-1 11,2023-205A,2026-06-14T05:39:22.803840,15.26968473,.0009324,97.3443,186.8387,26.9964,333.1758,0,U,58645,999,13707,.20385E-3,.533E-4,0
TIANMU-1 12,2023-205B,2026-06-14T03:22:14.253600,15.26932084,.0007104,97.3431,186.5013,14.5173,345.6268,0,U,58646,999,13704,.24038E-3,.6288E-4,0
TIANMU-1 13,2023-205C,2026-06-14T05:42:32.062176,15.26786058,.0006256,97.3460,186.8693,353.1009,7.0142,0,U,58647,999,13705,.20851E-3,.5419E-4,0
TIANMU-1 14,2023-205D,2026-06-14T03:46:58.931328,15.26830831,.0007227,97.3396,185.9745,357.1694,2.9503,0,U,58648,999,13704,.236E-3,.6154E-4,0
TIANMU-1 19,2023-208A,2026-06-14T05:11:20.861952,15.31533975,.0004043,97.4504,281.5005,341.7124,18.3971,0,U,58660,999,13687,.26419E-3,.7968E-4,0
TIANMU-1 20,2023-208B,2026-06-14T04:35:05.098272,15.32724814,.0006265,97.4445,282.1074,346.0055,14.1012,0,U,58661,999,13696,.25487E-3,.798E-4,0
